{
  "type": "FeatureCollection",
  "features": [
    {
      "type": "Feature",
      "properties": {
        "norad_id": 28890,
        "name": "BEIJING 1",
        "group": "dmc",
        "lat": -15.016207171097951,
        "lon": 127.47467127043886,
        "alt_km": 693.2480751794119,
        "timestamp": "2025-12-23T16:57:12.011473+00:00",
        "meta_object_name": "BEIJING 1",
        "meta_object_id": "2005-043A",
        "meta_epoch": "2025-12-23T07:10:35.411808",
        "meta_mean_motion": 14.63374804,
        "meta_eccentricity": 0.00157762,
        "meta_inclination": 98.2663,
        "meta_ra_of_asc_node": 124.8314,
        "meta_arg_of_pericenter": 110.3124,
        "meta_mean_anomaly": 249.9775,
        "meta_ephemeris_type": 0,
        "meta_classification_type": "U",
        "meta_norad_cat_id": 28890,
        "meta_element_set_no": 999,
        "meta_rev_at_epoch": 7492,
        "meta_bstar": 5.5785881e-05,
        "meta_mean_motion_dot": 2.4e-06,
        "meta_mean_motion_ddot": 0,
        "tle_line1": "1 28890U 05043A   25357.29902097  .00000240  00000+0  55786-4 0  9999",
        "tle_line2": "2 28890  98.2663 124.8314 0015776 110.3124 249.9775 14.63374804 74929"
      },
      "geometry": {
        "type": "Point",
        "coordinates": [
          127.47467127043886,
          -15.016207171097951
        ]
      }
    },
    {
      "type": "Feature",
      "properties": {
        "norad_id": 33320,
        "name": "HUANJING 1A (HJ-1A)",
        "group": "dmc",
        "lat": 79.07447501642302,
        "lon": -58.61516870739005,
        "alt_km": 609.390619311931,
        "timestamp": "2025-12-23T16:57:12.011496+00:00",
        "meta_object_name": "HUANJING 1A (HJ-1A)",
        "meta_object_id": "2008-041A",
        "meta_epoch": "2025-12-23T06:52:19.299072",
        "meta_mean_motion": 14.83426962,
        "meta_eccentricity": 0.00193784,
        "meta_inclination": 97.6543,
        "meta_ra_of_asc_node": 345.1446,
        "meta_arg_of_pericenter": 1.0541,
        "meta_mean_anomaly": 359.0711,
        "meta_ephemeris_type": 0,
        "meta_classification_type": "U",
        "meta_norad_cat_id": 33320,
        "meta_element_set_no": 999,
        "meta_rev_at_epoch": 93232,
        "meta_bstar": 0.00022618692,
        "meta_mean_motion_dot": 1.812e-05,
        "meta_mean_motion_ddot": 0,
        "tle_line1": "1 33320U 08041A   25357.28633448  .00001812  00000+0  22619-3 0  9998",
        "tle_line2": "2 33320  97.6543 345.1446 0019378   1.0541 359.0711 14.83426962932323"
      },
      "geometry": {
        "type": "Point",
        "coordinates": [
          -58.61516870739005,
          79.07447501642302
        ]
      }
    },
    {
      "type": "Feature",
      "properties": {
        "norad_id": 33321,
        "name": "HUANJING 1B (HJ-1B)",
        "group": "dmc",
        "lat": -77.47248582827093,
        "lon": 26.379151254340094,
        "alt_km": 641.2505652307618,
        "timestamp": "2025-12-23T16:57:12.011511+00:00",
        "meta_object_name": "HUANJING 1B (HJ-1B)",
        "meta_object_id": "2008-041B",
        "meta_epoch": "2025-12-23T05:58:37.133760",
        "meta_mean_motion": 14.82846017,
        "meta_eccentricity": 0.00378657,
        "meta_inclination": 97.64,
        "meta_ra_of_asc_node": 348.7781,
        "meta_arg_of_pericenter": 42.4143,
        "meta_mean_anomaly": 317.9987,
        "meta_ephemeris_type": 0,
        "meta_classification_type": "U",
        "meta_norad_cat_id": 33321,
        "meta_element_set_no": 999,
        "meta_rev_at_epoch": 93233,
        "meta_bstar": 0.00012646339,
        "meta_mean_motion_dot": 9.85e-06,
        "meta_mean_motion_ddot": 0,
        "tle_line1": "1 33321U 08041B   25357.24904090  .00000985  00000+0  12646-3 0  9998",
        "tle_line2": "2 33321  97.6400 348.7781 0037865  42.4143 317.9987 14.82846017932330"
      },
      "geometry": {
        "type": "Point",
        "coordinates": [
          26.379151254340094,
          -77.47248582827093
        ]
      }
    },
    {
      "type": "Feature",
      "properties": {
        "norad_id": 33446,
        "name": "YAOGAN-4",
        "group": "dmc",
        "lat": -6.7455081953212535,
        "lon": 106.75532679872354,
        "alt_km": 625.8953960608214,
        "timestamp": "2025-12-23T16:57:12.011523+00:00",
        "meta_object_name": "YAOGAN-4",
        "meta_object_id": "2008-061A",
        "meta_epoch": "2025-12-23T01:32:09.119616",
        "meta_mean_motion": 14.8271129,
        "meta_eccentricity": 0.00130344,
        "meta_inclination": 97.9196,
        "meta_ra_of_asc_node": 287.0626,
        "meta_arg_of_pericenter": 286.8037,
        "meta_mean_anomaly": 73.1747,
        "meta_ephemeris_type": 0,
        "meta_classification_type": "U",
        "meta_norad_cat_id": 33446,
        "meta_element_set_no": 999,
        "meta_rev_at_epoch": 91956,
        "meta_bstar": 0.0001704414,
        "meta_mean_motion_dot": 1.323e-05,
        "meta_mean_motion_ddot": 0,
        "tle_line1": "1 33446U 08061A   25357.06399444  .00001323  00000+0  17044-3 0  9993",
        "tle_line2": "2 33446  97.9196 287.0626 0013034 286.8037  73.1747 14.82711290919563"
      },
      "geometry": {
        "type": "Point",
        "coordinates": [
          106.75532679872354,
          -6.7455081953212535
        ]
      }
    },
    {
      "type": "Feature",
      "properties": {
        "norad_id": 35681,
        "name": "DEIMOS-1",
        "group": "dmc",
        "lat": 11.188903991243116,
        "lon": 156.26270202005097,
        "alt_km": 645.5581147677558,
        "timestamp": "2025-12-23T16:57:12.011534+00:00",
        "meta_object_name": "DEIMOS-1",
        "meta_object_id": "2009-041A",
        "meta_epoch": "2025-12-23T07:08:00.360096",
        "meta_mean_motion": 14.74968378,
        "meta_eccentricity": 0.00025389,
        "meta_inclination": 97.7151,
        "meta_ra_of_asc_node": 157.4093,
        "meta_arg_of_pericenter": 62.9326,
        "meta_mean_anomaly": 297.2143,
        "meta_ephemeris_type": 0,
        "meta_classification_type": "U",
        "meta_norad_cat_id": 35681,
        "meta_element_set_no": 999,
        "meta_rev_at_epoch": 88095,
        "meta_bstar": 0.00014413303,
        "meta_mean_motion_dot": 9.21e-06,
        "meta_mean_motion_ddot": 0,
        "tle_line1": "1 35681U 09041A   25357.29722639  .00000921  00000+0  14413-3 0  9996",
        "tle_line2": "2 35681  97.7151 157.4093 0002538  62.9326 297.2143 14.74968378880955"
      },
      "geometry": {
        "type": "Point",
        "coordinates": [
          156.26270202005097,
          11.188903991243116
        ]
      }
    },
    {
      "type": "Feature",
      "properties": {
        "norad_id": 35683,
        "name": "UK-DMC 2",
        "group": "dmc",
        "lat": 52.352730061179436,
        "lon": 121.98775213542923,
        "alt_km": 637.3949595338509,
        "timestamp": "2025-12-23T16:57:12.011545+00:00",
        "meta_object_name": "UK-DMC 2",
        "meta_object_id": "2009-041C",
        "meta_epoch": "2025-12-23T06:56:57.680736",
        "meta_mean_motion": 14.75643474,
        "meta_eccentricity": 0.00015432,
        "meta_inclination": 97.8571,
        "meta_ra_of_asc_node": 131.8948,
        "meta_arg_of_pericenter": 93.5401,
        "meta_mean_anomaly": 266.5985,
        "meta_ephemeris_type": 0,
        "meta_classification_type": "U",
        "meta_norad_cat_id": 35683,
        "meta_element_set_no": 999,
        "meta_rev_at_epoch": 88062,
        "meta_bstar": 0.0001815188,
        "meta_mean_motion_dot": 1.19e-05,
        "meta_mean_motion_ddot": 0,
        "tle_line1": "1 35683U 09041C   25357.28955649  .00001190  00000+0  18152-3 0  9999",
        "tle_line2": "2 35683  97.8571 131.8948 0001543  93.5401 266.5985 14.75643474880623"
      },
      "geometry": {
        "type": "Point",
        "coordinates": [
          121.98775213542923,
          52.352730061179436
        ]
      }
    },
    {
      "type": "Feature",
      "properties": {
        "norad_id": 40715,
        "name": "DMC3-FM1",
        "group": "dmc",
        "lat": 50.38997214621769,
        "lon": 53.86887701066728,
        "alt_km": 609.9407676143646,
        "timestamp": "2025-12-23T16:57:12.011571+00:00",
        "meta_object_name": "DMC3-FM1",
        "meta_object_id": "2015-032A",
        "meta_epoch": "2025-12-23T06:40:29.016768",
        "meta_mean_motion": 14.85458942,
        "meta_eccentricity": 0.0004035,
        "meta_inclination": 97.6685,
        "meta_ra_of_asc_node": 224.0863,
        "meta_arg_of_pericenter": 278.3299,
        "meta_mean_anomaly": 81.7459,
        "meta_ephemeris_type": 0,
        "meta_classification_type": "U",
        "meta_norad_cat_id": 40715,
        "meta_element_set_no": 999,
        "meta_rev_at_epoch": 56379,
        "meta_bstar": 0.00013131869,
        "meta_mean_motion_dot": 1.081e-05,
        "meta_mean_motion_ddot": 0,
        "tle_line1": "1 40715U 15032A   25357.27811362  .00001081  00000+0  13132-3 0  9992",
        "tle_line2": "2 40715  97.6685 224.0863 0004035 278.3299  81.7459 14.85458942563791"
      },
      "geometry": {
        "type": "Point",
        "coordinates": [
          53.86887701066728,
          50.38997214621769
        ]
      }
    },
    {
      "type": "Feature",
      "properties": {
        "norad_id": 40716,
        "name": "DMC3-FM2",
        "group": "dmc",
        "lat": 8.621110016922199,
        "lon": -135.22114668556137,
        "alt_km": 613.719884065199,
        "timestamp": "2025-12-23T16:57:12.011584+00:00",
        "meta_object_name": "DMC3-FM2",
        "meta_object_id": "2015-032B",
        "meta_epoch": "2025-12-23T07:12:51.600672",
        "meta_mean_motion": 14.85456931,
        "meta_eccentricity": 0.0004686,
        "meta_inclination": 97.6742,
        "meta_ra_of_asc_node": 225.5591,
        "meta_arg_of_pericenter": 284.9406,
        "meta_mean_anomaly": 75.129,
        "meta_ephemeris_type": 0,
        "meta_classification_type": "U",
        "meta_norad_cat_id": 40716,
        "meta_element_set_no": 999,
        "meta_rev_at_epoch": 56379,
        "meta_bstar": 2.7315044e-05,
        "meta_mean_motion_dot": 1.84e-06,
        "meta_mean_motion_ddot": 0,
        "tle_line1": "1 40716U 15032B   25357.30059723  .00000184  00000+0  27315-4 0  9994",
        "tle_line2": "2 40716  97.6742 225.5591 0004686 284.9406  75.1290 14.85456931563791"
      },
      "geometry": {
        "type": "Point",
        "coordinates": [
          -135.22114668556137,
          8.621110016922199
        ]
      }
    },
    {
      "type": "Feature",
      "properties": {
        "norad_id": 40717,
        "name": "DMC3-FM3",
        "group": "dmc",
        "lat": -71.1222316155919,
        "lon": 24.349428354890208,
        "alt_km": 617.0730583067125,
        "timestamp": "2025-12-23T16:57:12.011596+00:00",
        "meta_object_name": "DMC3-FM3",
        "meta_object_id": "2015-032C",
        "meta_epoch": "2025-12-23T06:07:07.921056",
        "meta_mean_motion": 14.85442906,
        "meta_eccentricity": 0.00040619,
        "meta_inclination": 97.6795,
        "meta_ra_of_asc_node": 227.1553,
        "meta_arg_of_pericenter": 285.5807,
        "meta_mean_anomaly": 74.496,
        "meta_ephemeris_type": 0,
        "meta_classification_type": "U",
        "meta_norad_cat_id": 40717,
        "meta_element_set_no": 999,
        "meta_rev_at_epoch": 56379,
        "meta_bstar": 6.6553305e-05,
        "meta_mean_motion_dot": 5.22e-06,
        "meta_mean_motion_ddot": 0,
        "tle_line1": "1 40717U 15032C   25357.25495279  .00000522  00000+0  66553-4 0  9992",
        "tle_line2": "2 40717  97.6795 227.1553 0004061 285.5807  74.4960 14.85442906563798"
      },
      "geometry": {
        "type": "Point",
        "coordinates": [
          24.349428354890208,
          -71.1222316155919
        ]
      }
    }
  ]
}